OBJECT_NAME,OBJECT_ID,EPOCH,MEAN_MOTION,ECCENTRICITY,INCLINATION,RA_OF_ASC_NODE,ARG_OF_PERICENTER,MEAN_ANOMALY,EPHEMERIS_TYPE,CLASSIFICATION_TYPE,NORAD_CAT_ID,ELEMENT_SET_NO,REV_AT_EPOCH,BSTAR,MEAN_MOTION_DOT,MEAN_MOTION_DDOT
ONEWEB-0522,2022-138AD,2026-07-19T05:06:41.009760,13.19723943,.00019767,87.9195,298.5830,105.0522,255.0829,0,U,54140,999,18103,.17620882E-3,.83E-6,0
ONEWEB-0523,2022-138AE,2026-07-19T05:25:21.917568,13.20771205,.00021735,87.9186,268.0569,76.5731,283.5645,0,U,54141,999,18353,-.23211745E-3,-.81E-6,0
ONEWEB-0524,2022-138AF,2026-07-19T05:10:49.627488,13.20771012,.00028381,87.9184,268.0556,87.9627,272.1832,0,U,54142,999,18353,-.18731037E-3,-.63E-6,0
ONEWEB-0525,2022-138AG,2026-07-19T05:33:58.880736,13.19724613,.00022958,87.9196,298.5866,109.5057,250.6324,0,U,54143,999,18105,.33342295E-3,.146E-5,0
ONEWEB-0526,2022-138AH,2026-07-19T06:21:44.983872,13.19724824,.00021585,87.9195,298.5803,102.6790,257.4584,0,U,54144,999,18103,.18706895E-3,.88E-6,0
ONEWEB-0529,2022-138AJ,2026-07-19T04:37:07.666176,13.19726471,.00021582,87.9184,298.6013,107.3373,252.7996,0,U,54145,999,18104,.12698463E-3,.64E-6,0
ONEWEB-0531,2022-138AK,2026-07-19T04:51:25.289856,13.20771078,.00023921,87.9186,268.0557,77.5868,282.5533,0,U,54146,999,18353,-.30398241E-3,-.111E-5,0
ONEWEB-0535,2022-138AL,2026-07-19T05:24:52.188192,13.19725027,.0001934,87.9195,298.5814,92.6670,267.4684,0,U,54147,999,18106,-.32639288E-3,-.118E-5,0
ONEWEB-0536,2022-138AM,2026-07-19T04:32:01.779072,13.20771064,.00026264,87.9170,268.0769,76.7913,283.3513,0,U,54148,999,18352,-.43602336E-3,-.164E-5,0
ONEWEB-0527,2022-166A,2026-07-19T02:53:32.976384,13.21827773,.00021072,87.9232,237.6411,97.0728,263.0645,0,U,54642,999,17575,.1465437E-3,.74E-6,0
ONEWEB-0528,2022-166B,2026-07-19T02:54:46.071648,13.21826564,.00022132,87.9229,237.6433,99.7804,260.3580,0,U,54643,999,17576,.32064987E-3,.145E-5,0
ONEWEB-0539,2022-166C,2026-07-19T03:49:15.882240,13.21823844,.00018528,87.9239,237.6099,97.2121,262.9224,0,U,54644,999,17576,-.90597458E-4,-.24E-6,0
ONEWEB-0540,2022-166D,2026-07-19T03:59:09.401856,13.21824712,.00019536,87.9230,237.6367,94.6709,265.4648,0,U,54645,999,17575,-.14547321E-3,-.47E-6,0
ONEWEB-0542,2022-166E,2026-07-19T04:03:48.716640,13.21825677,.00017437,87.9243,237.6070,97.1211,263.0122,0,U,54646,999,17576,-.21911582E-3,-.77E-6,0
ONEWEB-0545,2022-166F,2026-07-19T03:12:56.693664,13.21826215,.00014632,87.9233,237.6237,90.4094,269.7207,0,U,54647,999,17572,.15010011E-3,.75E-6,0
ONEWEB-0580,2022-166G,2026-07-19T04:25:35.513184,13.21824006,.00017338,87.9231,237.6128,88.9894,271.1439,0,U,54648,999,17577,-.75694524E-4,-.18E-6,0
ONEWEB-0582,2022-166H,2026-07-19T03:37:08.274144,13.21824135,.00016044,87.9231,237.6124,92.9396,267.1921,0,U,54649,999,17574,.61233299E-4,.38E-6,0
ONEWEB-0583,2022-166J,2026-07-19T02:05:07.264896,13.21825870,.00019326,87.9233,237.6485,94.5004,265.6351,0,U,54650,999,17574,-.79251581E-4,-.2E-6,0
ONEWEB-0584,2022-166K,2026-07-19T04:23:10.737888,13.21824827,.00020576,87.9231,237.6142,94.8263,265.3106,0,U,54651,999,17574,-.15105117E-3,-.49E-6,0
ONEWEB-0585,2022-166L,2026-07-19T03:08:04.683264,13.21824471,.00022468,87.9235,237.6127,96.5928,263.5462,0,U,54652,999,17574,-.64728403E-4,-.14E-6,0
ONEWEB-0586,2022-166M,2026-07-19T03:27:27.807840,13.21823858,.00018738,87.9234,237.6354,97.3866,262.7481,0,U,54653,999,17574,.41206634E-4,.3E-6,0
ONEWEB-0587,2022-166N,2026-07-19T03:42:00.950688,13.21826201,.0002407,87.9240,237.6097,97.4728,262.6679,0,U,54654,999,17590,.8444287E-5,.17E-6,0
ONEWEB-0589,2022-166P,2026-07-19T03:22:38.094816,13.21826614,.00013325,87.9231,237.6209,81.9620,278.1665,0,U,54655,999,17576,.15211442E-3,.76E-6,0
ONEWEB-0590,2022-166Q,2026-07-19T03:58:44.758848,13.21825864,.00022046,87.9242,237.6091,83.5627,276.5758,0,U,54656,999,17575,-.15990954E-3,-.53E-6,0
ONEWEB-0591,2022-166R,2026-07-19T04:15:53.488224,13.21824060,.00024641,87.9226,237.6174,102.8695,257.2714,0,U,54657,999,17578,-.11271038E-3,-.34E-6,0
ONEWEB-0592,2022-166S,2026-07-19T04:20:45.424320,13.21823992,.00020397,87.9241,237.5988,96.7258,263.4108,0,U,54658,999,17566,-.14374912E-3,-.46E-6,0
ONEWEB-0593,2022-166T,2026-07-19T03:03:14.647968,13.21826835,.0001907,87.9237,237.6193,97.8698,262.2653,0,U,54659,999,17576,.21085516E-3,.1E-5,0
ONEWEB-0594,2022-166U,2026-07-19T03:32:18.750336,13.21824915,.0002239,87.9231,237.6310,98.5481,261.5906,0,U,54660,999,17578,-.48961798E-4,-.7E-7,0
ONEWEB-0595,2022-166V,2026-07-19T02:58:24.642048,13.21826180,.00023101,87.9240,237.6187,94.4192,265.7206,0,U,54661,999,17575,.28842052E-3,.132E-5,0
ONEWEB-0596,2022-166W,2026-07-19T04:11:03.737184,13.21824545,.00023196,87.9219,237.6187,94.6458,265.4941,0,U,54662,999,17576,-.43648952E-4,-.5E-7,0
