[
  {
    "name": "ONEWEB-0522",
    "noradId": "54140",
    "line1": "1 54140U 22138AD  26200.21297465  .00000083  00000+0  17621-3 0  9996",
    "line2": "2 54140  87.9195 298.5830 0001976 105.0522 255.0829 13.19723943181034"
  },
  {
    "name": "ONEWEB-0523",
    "noradId": "54141",
    "line1": "1 54141U 22138AE  26200.22594812 -.00000081  00000+0 -23212-3 0  9997",
    "line2": "2 54141  87.9186 268.0569 0002173  76.5731 283.5645 13.20771205183535"
  },
  {
    "name": "ONEWEB-0524",
    "noradId": "54142",
    "line1": "1 54142U 22138AF  26200.21585217 -.00000063  00000+0 -18731-3 0  9996",
    "line2": "2 54142  87.9184 268.0556 0002838  87.9627 272.1832 13.20771012183536"
  },
  {
    "name": "ONEWEB-0525",
    "noradId": "54143",
    "line1": "1 54143U 22138AG  26200.23193149  .00000146  00000+0  33342-3 0  9993",
    "line2": "2 54143  87.9196 298.5866 0002295 109.5057 250.6324 13.19724613181052"
  },
  {
    "name": "ONEWEB-0526",
    "noradId": "54144",
    "line1": "1 54144U 22138AH  26200.26510398  .00000088  00000+0  18707-3 0  9999",
    "line2": "2 54144  87.9195 298.5803 0002158 102.6790 257.4584 13.19724824181034"
  },
  {
    "name": "ONEWEB-0529",
    "noradId": "54145",
    "line1": "1 54145U 22138AJ  26200.19244984  .00000064  00000+0  12698-3 0  9994",
    "line2": "2 54145  87.9184 298.6013 0002158 107.3373 252.7996 13.19726471181042"
  },
  {
    "name": "ONEWEB-0531",
    "noradId": "54146",
    "line1": "1 54146U 22138AK  26200.20237604 -.00000111  00000+0 -30398-3 0  9990",
    "line2": "2 54146  87.9186 268.0557 0002392  77.5868 282.5533 13.20771078183535"
  },
  {
    "name": "ONEWEB-0535",
    "noradId": "54147",
    "line1": "1 54147U 22138AL  26200.22560403 -.00000118  00000+0 -32639-3 0  9996",
    "line2": "2 54147  87.9195 298.5814 0001934  92.6670 267.4684 13.19725027181066"
  },
  {
    "name": "ONEWEB-0536",
    "noradId": "54148",
    "line1": "1 54148U 22138AM  26200.18890948 -.00000164  00000+0 -43602-3 0  9995",
    "line2": "2 54148  87.9170 268.0769 0002626  76.7913 283.3513 13.20771064183528"
  },
  {
    "name": "ONEWEB-0527",
    "noradId": "54642",
    "line1": "1 54642U 22166A   26200.12052056  .00000074  00000+0  14654-3 0  9992",
    "line2": "2 54642  87.9232 237.6411 0002107  97.0728 263.0645 13.21827773175753"
  },
  {
    "name": "ONEWEB-0528",
    "noradId": "54643",
    "line1": "1 54643U 22166B   26200.12136657  .00000145  00000+0  32065-3 0  9998",
    "line2": "2 54643  87.9229 237.6433 0002213  99.7804 260.3580 13.21826564175762"
  },
  {
    "name": "ONEWEB-0539",
    "noradId": "54644",
    "line1": "1 54644U 22166C   26200.15921160 -.00000024  00000+0 -90597-4 0  9996",
    "line2": "2 54644  87.9239 237.6099 0001852  97.2121 262.9224 13.21823844175766"
  },
  {
    "name": "ONEWEB-0540",
    "noradId": "54645",
    "line1": "1 54645U 22166D   26200.16608104 -.00000047  00000+0 -14547-3 0  9993",
    "line2": "2 54645  87.9230 237.6367 0001953  94.6709 265.4648 13.21824712175753"
  },
  {
    "name": "ONEWEB-0542",
    "noradId": "54646",
    "line1": "1 54646U 22166E   26200.16931385 -.00000077  00000+0 -21912-3 0  9991",
    "line2": "2 54646  87.9243 237.6070 0001743  97.1211 263.0122 13.21825677175765"
  },
  {
    "name": "ONEWEB-0545",
    "noradId": "54647",
    "line1": "1 54647U 22166F   26200.13398951  .00000075  00000+0  15010-3 0  9993",
    "line2": "2 54647  87.9233 237.6237 0001463  90.4094 269.7207 13.21826215175726"
  },
  {
    "name": "ONEWEB-0580",
    "noradId": "54648",
    "line1": "1 54648U 22166G   26200.18443881 -.00000018  00000+0 -75695-4 0  9997",
    "line2": "2 54648  87.9231 237.6128 0001733  88.9894 271.1439 13.21824006175779"
  },
  {
    "name": "ONEWEB-0582",
    "noradId": "54649",
    "line1": "1 54649U 22166H   26200.15079021  .00000038  00000+0  61233-4 0  9999",
    "line2": "2 54649  87.9231 237.6124 0001604  92.9396 267.1921 13.21824135175746"
  },
  {
    "name": "ONEWEB-0583",
    "noradId": "54650",
    "line1": "1 54650U 22166J   26200.08688964 -.00000020  00000+0 -79252-4 0  9998",
    "line2": "2 54650  87.9233 237.6485 0001932  94.5004 265.6351 13.21825870175745"
  },
  {
    "name": "ONEWEB-0584",
    "noradId": "54651",
    "line1": "1 54651U 22166K   26200.18276317 -.00000049  00000+0 -15105-3 0  9992",
    "line2": "2 54651  87.9231 237.6142 0002057  94.8263 265.3106 13.21824827175749"
  },
  {
    "name": "ONEWEB-0585",
    "noradId": "54652",
    "line1": "1 54652U 22166L   26200.13060976 -.00000014  00000+0 -64728-4 0  9998",
    "line2": "2 54652  87.9235 237.6127 0002246  96.5928 263.5462 13.21824471175744"
  },
  {
    "name": "ONEWEB-0586",
    "noradId": "54653",
    "line1": "1 54653U 22166M   26200.14407185  .00000030  00000+0  41207-4 0  9990",
    "line2": "2 54653  87.9234 237.6354 0001873  97.3866 262.7481 13.21823858175741"
  },
  {
    "name": "ONEWEB-0587",
    "noradId": "54654",
    "line1": "1 54654U 22166N   26200.15417767  .00000017  00000+0  84443-5 0  9994",
    "line2": "2 54654  87.9240 237.6097 0002407  97.4728 262.6679 13.21826201175906"
  },
  {
    "name": "ONEWEB-0589",
    "noradId": "54655",
    "line1": "1 54655U 22166P   26200.14071869  .00000076  00000+0  15211-3 0  9993",
    "line2": "2 54655  87.9231 237.6209 0001332  81.9620 278.1665 13.21826614175766"
  },
  {
    "name": "ONEWEB-0590",
    "noradId": "54656",
    "line1": "1 54656U 22166Q   26200.16579582 -.00000053  00000+0 -15991-3 0  9993",
    "line2": "2 54656  87.9242 237.6091 0002204  83.5627 276.5758 13.21825864175752"
  },
  {
    "name": "ONEWEB-0591",
    "noradId": "54657",
    "line1": "1 54657U 22166R   26200.17770241 -.00000034  00000+0 -11271-3 0  9996",
    "line2": "2 54657  87.9226 237.6174 0002464 102.8695 257.2714 13.21824060175783"
  },
  {
    "name": "ONEWEB-0592",
    "noradId": "54658",
    "line1": "1 54658U 22166S   26200.18108130 -.00000046  00000+0 -14375-3 0  9991",
    "line2": "2 54658  87.9241 237.5988 0002039  96.7258 263.4108 13.21823992175663"
  },
  {
    "name": "ONEWEB-0593",
    "noradId": "54659",
    "line1": "1 54659U 22166T   26200.12725287  .00000100  00000+0  21086-3 0  9990",
    "line2": "2 54659  87.9237 237.6193 0001907  97.8698 262.2653 13.21826835175763"
  },
  {
    "name": "ONEWEB-0594",
    "noradId": "54660",
    "line1": "1 54660U 22166U   26200.14743924 -.00000007  00000+0 -48962-4 0  9993",
    "line2": "2 54660  87.9231 237.6310 0002239  98.5481 261.5906 13.21824915175789"
  },
  {
    "name": "ONEWEB-0595",
    "noradId": "54661",
    "line1": "1 54661U 22166V   26200.12389632  .00000132  00000+0  28842-3 0  9995",
    "line2": "2 54661  87.9240 237.6187 0002310  94.4192 265.7206 13.21826180175758"
  },
  {
    "name": "ONEWEB-0596",
    "noradId": "54662",
    "line1": "1 54662U 22166W   26200.17434881 -.00000005  00000+0 -43649-4 0  9992",
    "line2": "2 54662  87.9219 237.6187 0002319  94.6458 265.4941 13.21824545175768"
  }
]